[{"OBJECT_NAME":"STARLINK-5127","OBJECT_ID":"2022-125AY","EPOCH":"2026-03-09T15:40:58.467072","MEAN_MOTION":15.08838433,"ECCENTRICITY":0.00012578,"INCLINATION":53.2177,"RA_OF_ASC_NODE":203.8593,"ARG_OF_PERICENTER":92.7743,"MEAN_ANOMALY":267.3393,"EPHEMERIS_TYPE":0,"CLASSIFICATION_TYPE":"U","NORAD_CAT_ID":54010,"ELEMENT_SET_NO":999,"REV_AT_EPOCH":18960,"BSTAR":-2.780255e-6,"MEAN_MOTION_DOT":-3.32e-6,"MEAN_MOTION_DDOT":0},{"OBJECT_NAME":"FENGYUN 1C DEB","OBJECT_ID":"1999-025AZQ","EPOCH":"2026-03-09T07:24:32.374656","MEAN_MOTION":14.90450247,"ECCENTRICITY":0.01635078,"INCLINATION":98.8142,"RA_OF_ASC_NODE":23.899,"ARG_OF_PERICENTER":102.803,"MEAN_ANOMALY":259.1511,"EPHEMERIS_TYPE":0,"CLASSIFICATION_TYPE":"U","NORAD_CAT_ID":30926,"ELEMENT_SET_NO":999,"REV_AT_EPOCH":2056,"BSTAR":0.00046140842,"MEAN_MOTION_DOT":5.728e-5,"MEAN_MOTION_DDOT":0}]
